{
  "type": "FeatureCollection",
  "features": [
    {
      "type": "Feature",
      "properties": {
        "norad_id": 41824,
        "name": "FENGYUN 1C DEB",
        "group": "fengyun-1c-debris",
        "lat": -26.594340503286272,
        "lon": -123.24434609878458,
        "alt_km": 775.6333270079576,
        "timestamp": "2025-12-23T05:02:12.321086+00:00",
        "meta_object_name": "FENGYUN 1C DEB",
        "meta_object_id": "1999-025EYB",
        "meta_epoch": "2025-12-22T02:46:36.904224",
        "meta_mean_motion": 14.24225533,
        "meta_eccentricity": 0.00578971,
        "meta_inclination": 98.7308,
        "meta_ra_of_asc_node": 60.0811,
        "meta_arg_of_pericenter": 200.7576,
        "meta_mean_anomaly": 159.1251,
        "meta_ephemeris_type": 0,
        "meta_classification_type": "U",
        "meta_norad_cat_id": 41824,
        "meta_element_set_no": 999,
        "meta_rev_at_epoch": 47493,
        "meta_bstar": 0.0014462054,
        "meta_mean_motion_dot": 3.35e-05,
        "meta_mean_motion_ddot": 0,
        "tle_line1": "1 41824U 99025EYB 25356.11570491  .00003350  00000+0  14462-2 0  9992",
        "tle_line2": "2 41824  98.7308  60.0811 0057897 200.7576 159.1251 14.24225533474937"
      },
      "geometry": {
        "type": "Point",
        "coordinates": [
          -123.24434609878458,
          -26.594340503286272
        ]
      }
    },
    {
      "type": "Feature",
      "properties": {
        "norad_id": 41825,
        "name": "FENGYUN 1C DEB",
        "group": "fengyun-1c-debris",
        "lat": 73.32062777192057,
        "lon": -82.90033821514163,
        "alt_km": 798.3098342474486,
        "timestamp": "2025-12-23T05:02:12.321097+00:00",
        "meta_object_name": "FENGYUN 1C DEB",
        "meta_object_id": "1999-025EYC",
        "meta_epoch": "2025-12-21T03:40:51.708000",
        "meta_mean_motion": 14.25146759,
        "meta_eccentricity": 0.00562048,
        "meta_inclination": 98.7414,
        "meta_ra_of_asc_node": 64.1533,
        "meta_arg_of_pericenter": 196.8248,
        "meta_mean_anomaly": 163.1069,
        "meta_ephemeris_type": 0,
        "meta_classification_type": "U",
        "meta_norad_cat_id": 41825,
        "meta_element_set_no": 999,
        "meta_rev_at_epoch": 47468,
        "meta_bstar": 0.0010509241,
        "meta_mean_motion_dot": 2.464e-05,
        "meta_mean_motion_ddot": 0,
        "tle_line1": "1 41825U 99025EYC 25355.15337625  .00002464  00000+0  10509-2 0  9999",
        "tle_line2": "2 41825  98.7414  64.1533 0056204 196.8248 163.1069 14.25146759474681"
      },
      "geometry": {
        "type": "Point",
        "coordinates": [
          -82.90033821514163,
          73.32062777192057
        ]
      }
    },
    {
      "type": "Feature",
      "properties": {
        "norad_id": 41826,
        "name": "FENGYUN 1C DEB",
        "group": "fengyun-1c-debris",
        "lat": 25.426517610066504,
        "lon": 58.74051987756478,
        "alt_km": 851.008868798458,
        "timestamp": "2025-12-23T05:02:12.321107+00:00",
        "meta_object_name": "FENGYUN 1C DEB",
        "meta_object_id": "1999-025EYD",
        "meta_epoch": "2025-12-17T15:40:24.664800",
        "meta_mean_motion": 14.23780201,
        "meta_eccentricity": 0.00560806,
        "meta_inclination": 98.7338,
        "meta_ra_of_asc_node": 57.4138,
        "meta_arg_of_pericenter": 209.4871,
        "meta_mean_anomaly": 150.3141,
        "meta_ephemeris_type": 0,
        "meta_classification_type": "U",
        "meta_norad_cat_id": 41826,
        "meta_element_set_no": 999,
        "meta_rev_at_epoch": 47430,
        "meta_bstar": 0.0011247822,
        "meta_mean_motion_dot": 2.57e-05,
        "meta_mean_motion_ddot": 0,
        "tle_line1": "1 41826U 99025EYD 25351.65306325  .00002570  00000+0  11248-2 0  9993",
        "tle_line2": "2 41826  98.7338  57.4138 0056080 209.4871 150.3141 14.23780201474300"
      },
      "geometry": {
        "type": "Point",
        "coordinates": [
          58.74051987756478,
          25.426517610066504
        ]
      }
    },
    {
      "type": "Feature",
      "properties": {
        "norad_id": 41827,
        "name": "FENGYUN 1C DEB",
        "group": "fengyun-1c-debris",
        "lat": -20.706694485953577,
        "lon": 69.71587554874864,
        "alt_km": 850.6814609851435,
        "timestamp": "2025-12-23T05:02:12.321116+00:00",
        "meta_object_name": "FENGYUN 1C DEB",
        "meta_object_id": "1999-025EYE",
        "meta_epoch": "2025-12-22T03:51:52.066656",
        "meta_mean_motion": 14.25340345,
        "meta_eccentricity": 0.00586649,
        "meta_inclination": 98.7426,
        "meta_ra_of_asc_node": 65.3361,
        "meta_arg_of_pericenter": 187.1613,
        "meta_mean_anomaly": 172.8735,
        "meta_ephemeris_type": 0,
        "meta_classification_type": "U",
        "meta_norad_cat_id": 41827,
        "meta_element_set_no": 999,
        "meta_rev_at_epoch": 47465,
        "meta_bstar": 0.0015345989,
        "meta_mean_motion_dot": 3.638e-05,
        "meta_mean_motion_ddot": 0,
        "tle_line1": "1 41827U 99025EYE 25356.16101929  .00003638  00000+0  15346-2 0  9997",
        "tle_line2": "2 41827  98.7426  65.3361 0058664 187.1613 172.8735 14.25340345474650"
      },
      "geometry": {
        "type": "Point",
        "coordinates": [
          69.71587554874864,
          -20.706694485953577
        ]
      }
    },
    {
      "type": "Feature",
      "properties": {
        "norad_id": 41828,
        "name": "FENGYUN 1C DEB",
        "group": "fengyun-1c-debris",
        "lat": 25.643072717628034,
        "lon": -49.77008776807708,
        "alt_km": 691.8441441421373,
        "timestamp": "2025-12-23T05:02:12.321126+00:00",
        "meta_object_name": "FENGYUN 1C DEB",
        "meta_object_id": "1999-025EYF",
        "meta_epoch": "2025-12-22T20:03:45.218592",
        "meta_mean_motion": 14.5203048,
        "meta_eccentricity": 0.00373731,
        "meta_inclination": 98.924,
        "meta_ra_of_asc_node": 125.507,
        "meta_arg_of_pericenter": 147.0031,
        "meta_mean_anomaly": 213.3506,
        "meta_ephemeris_type": 0,
        "meta_classification_type": "U",
        "meta_norad_cat_id": 41828,
        "meta_element_set_no": 999,
        "meta_rev_at_epoch": 47610,
        "meta_bstar": 0.0046850774,
        "meta_mean_motion_dot": 0.00019112,
        "meta_mean_motion_ddot": 0,
        "tle_line1": "1 41828U 99025EYF 25356.83594003  .00019112  00000+0  46851-2 0  9990",
        "tle_line2": "2 41828  98.9240 125.5070 0037373 147.0031 213.3506 14.52030480476101"
      },
      "geometry": {
        "type": "Point",
        "coordinates": [
          -49.77008776807708,
          25.643072717628034
        ]
      }
    },
    {
      "type": "Feature",
      "properties": {
        "norad_id": 41829,
        "name": "FENGYUN 1C DEB",
        "group": "fengyun-1c-debris",
        "lat": 59.58719923594327,
        "lon": -98.41397238662384,
        "alt_km": 787.8146162473204,
        "timestamp": "2025-12-23T05:02:12.321136+00:00",
        "meta_object_name": "FENGYUN 1C DEB",
        "meta_object_id": "1999-025EYG",
        "meta_epoch": "2025-12-21T03:36:43.757280",
        "meta_mean_motion": 14.25173263,
        "meta_eccentricity": 0.00568822,
        "meta_inclination": 98.7436,
        "meta_ra_of_asc_node": 64.3348,
        "meta_arg_of_pericenter": 195.0603,
        "meta_mean_anomaly": 164.8885,
        "meta_ephemeris_type": 0,
        "meta_classification_type": "U",
        "meta_norad_cat_id": 41829,
        "meta_element_set_no": 999,
        "meta_rev_at_epoch": 47427,
        "meta_bstar": 0.0010101815,
        "meta_mean_motion_dot": 2.369e-05,
        "meta_mean_motion_ddot": 0,
        "tle_line1": "1 41829U 99025EYG 25355.15050645  .00002369  00000+0  10102-2 0  9990",
        "tle_line2": "2 41829  98.7436  64.3348 0056882 195.0603 164.8885 14.25173263474272"
      },
      "geometry": {
        "type": "Point",
        "coordinates": [
          -98.41397238662384,
          59.58719923594327
        ]
      }
    },
    {
      "type": "Feature",
      "properties": {
        "norad_id": 41830,
        "name": "FENGYUN 1C DEB",
        "group": "fengyun-1c-debris",
        "lat": -10.383928149900791,
        "lon": 70.80819829777198,
        "alt_km": 845.1427670724015,
        "timestamp": "2025-12-23T05:02:12.321147+00:00",
        "meta_object_name": "FENGYUN 1C DEB",
        "meta_object_id": "1999-025EYH",
        "meta_epoch": "2025-12-22T03:50:08.879136",
        "meta_mean_motion": 14.2651985,
        "meta_eccentricity": 0.00549434,
        "meta_inclination": 98.7534,
        "meta_ra_of_asc_node": 68.1407,
        "meta_arg_of_pericenter": 190.1772,
        "meta_mean_anomaly": 169.8301,
        "meta_ephemeris_type": 0,
        "meta_classification_type": "U",
        "meta_norad_cat_id": 41830,
        "meta_element_set_no": 999,
        "meta_rev_at_epoch": 47408,
        "meta_bstar": 0.00166186,
        "meta_mean_motion_dot": 4.027e-05,
        "meta_mean_motion_ddot": 0,
        "tle_line1": "1 41830U 99025EYH 25356.15982499  .00004027  00000+0  16619-2 0  9996",
        "tle_line2": "2 41830  98.7534  68.1407 0054943 190.1772 169.8301 14.26519850474084"
      },
      "geometry": {
        "type": "Point",
        "coordinates": [
          70.80819829777198,
          -10.383928149900791
        ]
      }
    }
  ]
}